{
  "type": "FeatureCollection",
  "features": [
    {
      "type": "Feature",
      "properties": {
        "norad_id": 40938,
        "name": "BEIDOU-3S IGSO-2S (C56)",
        "group": "gnss",
        "lat": 28.125925240198587,
        "lon": -71.96524365285882,
        "alt_km": 36006.4459200602,
        "timestamp": "2025-12-21T07:34:34.763733+00:00",
        "meta_object_name": "BEIDOU-3S IGSO-2S (C56)",
        "meta_object_id": "2015-053A",
        "meta_epoch": "2025-12-20T17:06:26.975808",
        "meta_mean_motion": 1.00268356,
        "meta_eccentricity": 0.00605652,
        "meta_inclination": 49.4983,
        "meta_ra_of_asc_node": 260.9119,
        "meta_arg_of_pericenter": 188.6737,
        "meta_mean_anomaly": 352.4367,
        "meta_ephemeris_type": 0,
        "meta_classification_type": "U",
        "meta_norad_cat_id": 40938,
        "meta_element_set_no": 999,
        "meta_rev_at_epoch": 3756,
        "meta_bstar": 0,
        "meta_mean_motion_dot": -1.06e-06,
        "meta_mean_motion_ddot": 0,
        "tle_line1": "1 40938U 15053A   25354.71281222 -.00000106  00000+0  00000+0 0  9998",
        "tle_line2": "2 40938  49.4983 260.9119 0060565 188.6737 352.4367  1.00268356 37565"
      },
      "geometry": {
        "type": "Point",
        "coordinates": [
          -71.96524365285882,
          28.125925240198587
        ]
      }
    },
    {
      "type": "Feature",
      "properties": {
        "norad_id": 41019,
        "name": "GPS BIIF-11 (PRN 10)",
        "group": "gnss",
        "lat": 17.683305469258997,
        "lon": 49.71585999549558,
        "alt_km": 20437.78038856906,
        "timestamp": "2025-12-21T07:34:34.763744+00:00",
        "meta_object_name": "GPS BIIF-11 (PRN 10)",
        "meta_object_id": "2015-062A",
        "meta_epoch": "2025-12-20T06:55:31.863072",
        "meta_mean_motion": 2.00567218,
        "meta_eccentricity": 0.0111019,
        "meta_inclination": 56.8376,
        "meta_ra_of_asc_node": 37.7103,
        "meta_arg_of_pericenter": 230.1421,
        "meta_mean_anomaly": 128.9419,
        "meta_ephemeris_type": 0,
        "meta_classification_type": "U",
        "meta_norad_cat_id": 41019,
        "meta_element_set_no": 999,
        "meta_rev_at_epoch": 7424,
        "meta_bstar": 0,
        "meta_mean_motion_dot": -5.7e-07,
        "meta_mean_motion_ddot": 0,
        "tle_line1": "1 41019U 15062A   25354.28856323 -.00000057  00000+0  00000+0 0  9996",
        "tle_line2": "2 41019  56.8376  37.7103 0111019 230.1421 128.9419  2.00567218 74241"
      },
      "geometry": {
        "type": "Point",
        "coordinates": [
          49.71585999549558,
          17.683305469258997
        ]
      }
    },
    {
      "type": "Feature",
      "properties": {
        "norad_id": 41028,
        "name": "GSAT-15 (GAGAN/PRN 139)",
        "group": "gnss",
        "lat": -0.008523605095014219,
        "lon": -62.69804514641879,
        "alt_km": 35780.966988752756,
        "timestamp": "2025-12-21T07:34:34.763754+00:00",
        "meta_object_name": "GSAT-15 (GAGAN/PRN 139)",
        "meta_object_id": "2015-065A",
        "meta_epoch": "2025-12-20T21:55:38.685216",
        "meta_mean_motion": 1.00273191,
        "meta_eccentricity": 0.00023452,
        "meta_inclination": 0.0286,
        "meta_ra_of_asc_node": 272.2262,
        "meta_arg_of_pericenter": 323.5032,
        "meta_mean_anomaly": 276.4257,
        "meta_ephemeris_type": 0,
        "meta_classification_type": "U",
        "meta_norad_cat_id": 41028,
        "meta_element_set_no": 999,
        "meta_rev_at_epoch": 3701,
        "meta_bstar": 0,
        "meta_mean_motion_dot": -2.35e-06,
        "meta_mean_motion_ddot": 0,
        "tle_line1": "1 41028U 15065A   25354.91364219 -.00000235  00000+0  00000+0 0  9995",
        "tle_line2": "2 41028   0.0286 272.2262 0002345 323.5032 276.4257  1.00273191 37016"
      },
      "geometry": {
        "type": "Point",
        "coordinates": [
          -62.69804514641879,
          -0.008523605095014219
        ]
      }
    },
    {
      "type": "Feature",
      "properties": {
        "norad_id": 41174,
        "name": "GSAT0209 (GALILEO 12)",
        "group": "gnss",
        "lat": 5.977916364442977,
        "lon": 110.23177278769724,
        "alt_km": 23214.885841440562,
        "timestamp": "2025-12-21T07:34:34.763768+00:00",
        "meta_object_name": "GSAT0209 (GALILEO 12)",
        "meta_object_id": "2015-079A",
        "meta_epoch": "2025-12-20T17:12:54.927360",
        "meta_mean_motion": 1.70474584,
        "meta_eccentricity": 0.00024263,
        "meta_inclination": 55.7172,
        "meta_ra_of_asc_node": 106.1622,
        "meta_arg_of_pericenter": 346.435,
        "meta_mean_anomaly": 13.5264,
        "meta_ephemeris_type": 0,
        "meta_classification_type": "U",
        "meta_norad_cat_id": 41174,
        "meta_element_set_no": 999,
        "meta_rev_at_epoch": 6173,
        "meta_bstar": 0,
        "meta_mean_motion_dot": 0,
        "meta_mean_motion_ddot": 0,
        "tle_line1": "1 41174U 15079A   25354.71730240  .00000000  00000+0  00000+0 0  9990",
        "tle_line2": "2 41174  55.7172 106.1622 0002426 346.4350  13.5264  1.70474584 61731"
      },
      "geometry": {
        "type": "Point",
        "coordinates": [
          110.23177278769724,
          5.977916364442977
        ]
      }
    },
    {
      "type": "Feature",
      "properties": {
        "norad_id": 41175,
        "name": "GSAT0208 (GALILEO 11)",
        "group": "gnss",
        "lat": -40.72775326260222,
        "lon": -37.95291431761536,
        "alt_km": 23230.20723047991,
        "timestamp": "2025-12-21T07:34:34.763778+00:00",
        "meta_object_name": "GSAT0208 (GALILEO 11)",
        "meta_object_id": "2015-079B",
        "meta_epoch": "2025-12-20T08:25:16.296384",
        "meta_mean_motion": 1.70474393,
        "meta_eccentricity": 0.00018076,
        "meta_inclination": 55.7157,
        "meta_ra_of_asc_node": 106.1693,
        "meta_arg_of_pericenter": 359.1842,
        "meta_mean_anomaly": 0.7815,
        "meta_ephemeris_type": 0,
        "meta_classification_type": "U",
        "meta_norad_cat_id": 41175,
        "meta_element_set_no": 999,
        "meta_rev_at_epoch": 6214,
        "meta_bstar": 0,
        "meta_mean_motion_dot": -2e-08,
        "meta_mean_motion_ddot": 0,
        "tle_line1": "1 41175U 15079B   25354.35088306 -.00000002  00000+0  00000+0 0  9993",
        "tle_line2": "2 41175  55.7157 106.1693 0001807 359.1842   0.7815  1.70474393 62146"
      },
      "geometry": {
        "type": "Point",
        "coordinates": [
          -37.95291431761536,
          -40.72775326260222
        ]
      }
    },
    {
      "type": "Feature",
      "properties": {
        "norad_id": 41241,
        "name": "IRNSS-1E",
        "group": "gnss",
        "lat": -31.343391053808595,
        "lon": -47.19097865036868,
        "alt_km": 35751.103801284604,
        "timestamp": "2025-12-21T07:34:34.763789+00:00",
        "meta_object_name": "IRNSS-1E",
        "meta_object_id": "2016-003A",
        "meta_epoch": "2025-12-20T14:57:09.230400",
        "meta_mean_motion": 1.00270447,
        "meta_eccentricity": 0.0021619,
        "meta_inclination": 32.8427,
        "meta_ra_of_asc_node": 62.3382,
        "meta_arg_of_pericenter": 188.6599,
        "meta_mean_anomaly": 174.4859,
        "meta_ephemeris_type": 0,
        "meta_classification_type": "U",
        "meta_norad_cat_id": 41241,
        "meta_element_set_no": 999,
        "meta_rev_at_epoch": 3629,
        "meta_bstar": 0,
        "meta_mean_motion_dot": -3e-06,
        "meta_mean_motion_ddot": 0,
        "tle_line1": "1 41241U 16003A   25354.62302350 -.00000300  00000+0  00000+0 0  9994",
        "tle_line2": "2 41241  32.8427  62.3382 0021619 188.6599 174.4859  1.00270447 36292"
      },
      "geometry": {
        "type": "Point",
        "coordinates": [
          -47.19097865036868,
          -31.343391053808595
        ]
      }
    },
    {
      "type": "Feature",
      "properties": {
        "norad_id": 41328,
        "name": "GPS BIIF-12 (PRN 32)",
        "group": "gnss",
        "lat": -30.46059364522654,
        "lon": 72.61375855537675,
        "alt_km": 20134.547779955228,
        "timestamp": "2025-12-21T07:34:34.763800+00:00",
        "meta_object_name": "GPS BIIF-12 (PRN 32)",
        "meta_object_id": "2016-007A",
        "meta_epoch": "2025-12-20T08:54:35.720928",
        "meta_mean_motion": 2.00560411,
        "meta_eccentricity": 0.00925423,
        "meta_inclination": 55.4103,
        "meta_ra_of_asc_node": 96.5541,
        "meta_arg_of_pericenter": 243.7653,
        "meta_mean_anomaly": 115.2741,
        "meta_ephemeris_type": 0,
        "meta_classification_type": "U",
        "meta_norad_cat_id": 41328,
        "meta_element_set_no": 999,
        "meta_rev_at_epoch": 7225,
        "meta_bstar": 0,
        "meta_mean_motion_dot": -1.8e-07,
        "meta_mean_motion_ddot": 0,
        "tle_line1": "1 41328U 16007A   25354.37124677 -.00000018  00000+0  00000+0 0  9996",
        "tle_line2": "2 41328  55.4103  96.5541 0092542 243.7653 115.2741  2.00560411 72256"
      },
      "geometry": {
        "type": "Point",
        "coordinates": [
          72.61375855537675,
          -30.46059364522654
        ]
      }
    }
  ]
}